COSMOS 1975             
1 19573U 88093A   24308.55783532  .00019893  00000+0  97297-3 0  9994
2 19573  82.5254 246.8818 0016944  94.6558 265.6611 15.17969026944630
SL-14 R/B               
1 19574U 88093B   24308.62319017  .00002056  00000+0  23842-3 0  9994
2 19574  82.5291 142.7514 0019887 219.6178 203.7518 14.84854231928146
SL-16 R/B               
1 19650U 88102B   24308.62203754  .00000599  00000+0  32734-3 0  9990
2 19650  70.9982 104.6679 0013021  30.7659 329.4225 14.16034442857374
INTERCOSMOS 24          
1 20261U 89080A   24308.55483020  .00002005  00000+0  59413-3 0  9991
2 20261  82.6074  63.6869 1192552 351.6968   6.5828 12.58450262604993
SL-14 R/B               
1 20262U 89080C   24308.53768510  .00001624  00000+0  49380-3 0  9998
2 20262  82.5901 128.5250 1231885 227.0970 122.0130 12.49973739598776
DELTA 1 R/B             
1 20323U 89089B   24308.62486336  .00002494  00000+0  63468-3 0  9997
2 20323  97.1184 221.7304 0068497 232.1095 127.3896 14.49960967824552
ARIANE 40 R/B           
1 20443U 90005H   24308.22158205  .00002095  00000+0  68839-3 0  9991
2 20443  98.3776  10.7105 0009312 238.4605 121.5674 14.39280438822091
DELTA 2 R/B(1)          
1 20453U 90008B   24308.43301559  .00060959  00000+0  19387-2 0  9996
2 20453  35.6183  56.8316 0179503 158.2937 202.5512 15.17322100850621
COSMOS 2058             
1 20465U 90010A   24308.57389469  .00011728  00000+0  80442-3 0  9994
2 20465  82.4879 168.8043 0012112 186.3651 173.7425 15.05855107868181
SL-14 R/B               
1 20466U 90010B   24308.57121557  .00002032  00000+0  24734-3 0  9997
2 20466  82.5053   8.3983 0021401 116.4526 243.8888 14.82823446855682
SL-14 R/B               
1 20511U 90018B   24308.52451552  .00001917  00000+0  24184-3 0  9992
2 20511  82.5198 321.9661 0014863 267.4509  92.5003 14.81413747849849
HST                     
1 20580U 90037B   24308.53593212  .00015866  00000+0  69044-3 0  9992
2 20580  28.4655 129.6490 0002807 107.6478 252.4422 15.20778609698243
SL-16 R/B               
1 20625U 90046B   24308.58469633  .00000625  00000+0  34785-3 0  9997
2 20625  70.9994 249.2301 0015551 323.5218  36.4844 14.14901094778922
COSMOS 2084             
1 20663U 90055A   24308.45735326  .00012047  00000+0  86951-3 0  9993
2 20663  62.7913 205.8538 0094642 133.2975 227.6067 15.00896130862451
SL-6 R/B(2)             
1 20666U 90055D   24308.57571887  .00010190  00000+0  79757-3 0  9992
2 20666  62.7832 119.8203 0064386 158.2877 202.0973 14.99882791864424
SL-8 R/B                
1 20775U 90078B   24308.54561209  .00035994  00000+0  13427-2 0  9992
2 20775  82.9108 325.9124 0443566 201.1996 157.0326 14.67288066736719
SL-8 R/B                
1 21088U 91006B   24308.58729105  .00000312  00000+0  29862-3 0  9994
2 21088  82.9442 175.3741 0022120 333.9047  88.9196 13.77385252696469
OKEAN-3                 
1 21397U 91039A   24308.47370989  .00014031  00000+0  11177-2 0  9995
2 21397  82.5169  91.2425 0014914 196.5850 163.4889 15.00177558791264
COSMOS 2151             
1 21422U 91042A   24308.19232182  .00008028  00000+0  69156-3 0  9999
2 21422  82.5009 196.7060 0011217 282.4181  77.5786 14.97174864789571
SL-14 R/B               
1 21423U 91042B   24308.54640971  .00001836  00000+0  23283-3 0  9999
2 21423  82.4915 320.5534 0018536  57.6569 302.6436 14.81128821780359
ERS-1                   
1 21574U 91050A   24308.58543296  .00001784  00000+0  59151-3 0  9996
2 21574  98.7876 303.5238 0031507 217.2426 142.6576 14.38850421745092
ARIANE 40 R/B           
1 21610U 91050F   24308.55157930  .00002270  00000+0  70140-3 0  9992
2 21610  98.2727   6.3748 0004186 115.0691 245.0933 14.42238248748189
INTERCOSMOS 25          
1 21819U 91086A   24308.57082284  .00004073  00000+0  80062-3 0  9990
2 21819  82.6046 246.4410 1497946  94.0134 283.2896 12.09510448437243
SL-8 R/B                
1 21876U 92008B   24308.44216778  .00000347  00000+0  34093-3 0  9994
2 21876  82.9239 273.0654 0036104  67.5605  47.0330 13.75876025641865
SL-8 R/B                
1 21938U 92020B   24308.61352420  .00000315  00000+0  31121-3 0  9995
2 21938  82.9302 158.4844 0028148 227.2251 187.1027 13.75454412633629
USA 81                  
1 21949U 92023A   24308.58554714  .00001148  00000+0  42012-3 0  9992
2 21949  85.0098  54.7293 0002252 112.0192 248.1239 14.32065343 24493
COSMOS 2219             
1 22219U 92076A   24308.50625068  .00000558  00000+0  31796-3 0  9995
2 22219  71.0612 324.7684 0019950 235.3750 124.5491 14.13948732648947
SL-16 R/B               
1 22220U 92076B   24308.58569354  .00000520  00000+0  28385-3 0  9999
2 22220  70.9986 142.7882 0010993 130.3236 289.5084 14.16729059652273
COSMOS 2221             
1 22236U 92080A   24308.58807415  .00007936  00000+0  75600-3 0  9994
2 22236  82.5090  28.3939 0015771  43.9823 316.2649 14.93176573707422
SL-16 R/B               
1 22285U 92093B   24308.49322087  .00000620  00000+0  34268-3 0  9997
2 22285  71.0212 315.3326 0005647 314.2354  45.8304 14.15322893643657
COSMOS 2228             
1 22286U 92094A   24308.61101813  .00007539  00000+0  70609-3 0  9990
2 22286  82.5194 346.3718 0020164 150.3474 209.8895 14.93781635702658
SL-16 R/B               
1 22566U 93016B   24308.62737883  .00000240  00000+0  14815-3 0  9998
2 22566  71.0075 166.4798 0011070 338.2909  21.7743 14.15191630632698
COSMOS 2242             
1 22626U 93024A   24308.61382819  .00008301  00000+0  78647-3 0  9997
2 22626  82.5232  15.3046 0017972 152.2361 207.9823 14.93367637707012
SL-16 R/B               
1 22803U 93059B   24308.49467352  .00000175  00000+0  11040-3 0  9999
2 22803  70.9906 326.8689 0019356 242.8935 117.0215 14.17099544609946
ARIANE 40 R/B           
1 22830U 93061H   24308.44203763  .00001561  00000+0  59338-3 0  9993
2 22830  98.5566  14.3427 0009823 299.5363  60.4840 14.32377937623768
COSMOS 2278             
1 23087U 94023A   24308.60643106  .00000724  00000+0  40447-3 0  9995
2 23087  71.0509 122.4117 0007148  51.1710 309.0049 14.14186946575373
SL-16 R/B               
1 23088U 94023B   24308.60316948  .00000623  00000+0  34707-3 0  9997
2 23088  71.0024  22.1394 0004998 303.0330  57.0312 14.14906178576625
SL-16 R/B               
1 23343U 94074B   24308.57660536  .00002480  00000+0  34618-3 0  9992
2 23343  97.7704 346.8680 0007322  30.0721  92.0626 14.78527269614651
SL-16 R/B               
1 23405U 94077B   24308.49318145  .00000078  00000+0  64715-4 0  9994
2 23405  70.9819 305.7934 0003937 230.7614 129.3160 14.15451828546721
ARIANE 40+ R/B          
1 23561U 95021B   24308.45861076  .00002005  00000+0  66130-3 0  9993
2 23561  98.5125  13.9982 0007160 164.6321 205.8627 14.39177897548573
SL-16 R/B               
1 23705U 95058B   24308.61762705  .00000517  00000+0  28909-3 0  9998
2 23705  71.0197 131.1821 0011610 157.6723 202.4908 14.15393467498369
SL-16 R/B               
1 24298U 96051B   24308.59674552  .00000061  00000+0  59760-4 0  9993
2 24298  70.7871 134.2137 0014045 144.4134 215.7925 14.12456100452302
ORBVIEW 2 (SEASTAR)     
1 24883U 97037A   24308.62880374  .00002012  00000+0  72430-3 0  9999
2 24883  98.7962  90.8611 0003100  75.1353 285.0174 14.34876659438039
SL-16 R/B               
1 25400U 98043G   24308.56004628  .00000617  00000+0  27811-3 0  9998
2 25400  98.7592 249.3750 0009987   6.1090 354.0210 14.25855681368997
SL-16 R/B               
1 25407U 98045B   24308.58524856  .00000138  00000+0  93799-4 0  9996
2 25407  71.0092 134.2749 0005748  40.0659 320.0887 14.16066995357579
ISS (ZARYA)             
1 25544U 98067A   24308.63475601  .00033013  00000+0  56120-3 0  9995
2 25544  51.6403 344.6095 0009016 133.2743  11.3212 15.51088133480176
CZ-4B R/B               
1 25732U 99025C   24308.63221589  .00000607  00000+0  31553-3 0  9999
2 25732  98.7342 351.6735 0036482 317.0135 155.1101 14.18076269318568
OKEAN-O                 
1 25860U 99039A   24308.60968013  .00003400  00000+0  46644-3 0  9994
2 25860  98.0177   0.6667 0001815 102.4489 257.6925 14.79075141361761
SL-16 R/B               
1 25861U 99039B   24308.60660410  .00003314  00000+0  43749-3 0  9992
2 25861  98.0703 355.5260 0016125  51.8148 308.4513 14.80642615364160
DELTA 2 R/B             
1 25876U 99041E   24308.57050587  .00003340  00000+0  58328-3 0  9993
2 25876  51.7621  99.5781 0512426 341.3860  16.8916 14.09408476293701
HELIOS 1B               
1 25977U 99064A   24308.60716362  .00006192  00000+0  72813-3 0  9997
2 25977  98.2201 184.8206 0000982 136.9353 223.1938 14.85236849612302
TERRA                   
1 25994U 99068A   24308.63671918  .00002968  00000+0  62532-3 0  9994
2 25994  98.0316   7.9390 0001073 306.4026 170.4142 14.60181337323391
SL-16 R/B               
1 26070U 00006B   24308.61516772  .00000662  00000+0  36123-3 0  9994
2 26070  71.0037  50.3130 0017787 215.7417 144.2517 14.15702933279056
TITAN 4B R/B            
1 26474U 00047B   24308.54927588  .00011848  00000+0  83416-3 0  9995
2 26474  67.9922 336.4707 0050162 236.1191 123.5178 15.04251164318904
ENVISAT                 
1 27386U 02009A   24308.63227410  .00000954  00000+0  32438-3 0  9999
2 27386  98.3023 265.0087 0001332  84.1633  88.6080 14.38742535188554
IDEFIX & ARIANE 42P R/B 
1 27422U 02021B   24308.57558197  .00001948  00000+0  76451-3 0  9993
2 27422  98.5386 243.5511 0011472 188.2936 171.8059 14.30441857173796
AQUA                    
1 27424U 02022A   24308.61106677  .00005773  00000+0  12060-2 0  9998
2 27424  98.3478 258.6856 0002118  59.3980 114.1784 14.60239652197018
CZ-4B R/B               
1 27432U 02024C   24308.60609288  .00000425  00000+0  24285-3 0  9996
2 27432  98.9583 351.4939 0049831 337.2018 137.9171 14.14399759159810
MIDORI II (ADEOS-II)    
1 27597U 02056A   24308.56400688  .00001828  00000+0  74482-3 0  9993
2 27597  98.7082 254.7973 0001579  41.3196 318.8105 14.28668924140156
